{
  "type": "FeatureCollection",
  "features": [
    {
      "type": "Feature",
      "properties": {
        "norad_id": 34314,
        "name": "COSMOS 2251 DEB",
        "group": "cosmos-2251-debris",
        "lat": 71.97487622359134,
        "lon": 75.56656849735943,
        "alt_km": 765.2540931162139,
        "timestamp": "2025-12-07T16:44:04.306776+00:00",
        "meta_object_name": "COSMOS 2251 DEB",
        "meta_object_id": "1993-036NL",
        "meta_epoch": "2025-12-06T18:31:45.337728",
        "meta_mean_motion": 14.17401228,
        "meta_eccentricity": 0.01026328,
        "meta_inclination": 74.0055,
        "meta_ra_of_asc_node": 319.0332,
        "meta_arg_of_pericenter": 66.239,
        "meta_mean_anomaly": 352.2841,
        "meta_ephemeris_type": 0,
        "meta_classification_type": "U",
        "meta_norad_cat_id": 34314,
        "meta_element_set_no": 999,
        "meta_rev_at_epoch": 86573,
        "meta_bstar": 0.001121197,
        "meta_mean_motion_dot": 2.367e-05,
        "meta_mean_motion_ddot": 0,
        "tle_line1": "1 34314U 93036NL  25340.77205252  .00002367  00000+0  11212-2 0  9996",
        "tle_line2": "2 34314  74.0055 319.0332 0102632  66.2390 352.2841 14.17401228865733"
      },
      "geometry": {
        "type": "Point",
        "coordinates": [
          75.56656849735943,
          71.97487622359134
        ]
      }
    },
    {
      "type": "Feature",
      "properties": {
        "norad_id": 34316,
        "name": "COSMOS 2251 DEB",
        "group": "cosmos-2251-debris",
        "lat": 20.834387807100036,
        "lon": -6.768572523406042,
        "alt_km": 589.0969312023299,
        "timestamp": "2025-12-07T16:44:04.306787+00:00",
        "meta_object_name": "COSMOS 2251 DEB",
        "meta_object_id": "1993-036NN",
        "meta_epoch": "2025-12-06T18:06:06.023232",
        "meta_mean_motion": 14.91560155,
        "meta_eccentricity": 0.00079785,
        "meta_inclination": 74.0663,
        "meta_ra_of_asc_node": 348.8772,
        "meta_arg_of_pericenter": 75.8847,
        "meta_mean_anomaly": 284.3222,
        "meta_ephemeris_type": 0,
        "meta_classification_type": "U",
        "meta_norad_cat_id": 34316,
        "meta_element_set_no": 999,
        "meta_rev_at_epoch": 89120,
        "meta_bstar": 0.0027065099,
        "meta_mean_motion_dot": 0.00027228,
        "meta_mean_motion_ddot": 0,
        "tle_line1": "1 34316U 93036NN  25340.75423638  .00027228  00000+0  27065-2 0  9992",
        "tle_line2": "2 34316  74.0663 348.8772 0007978  75.8847 284.3222 14.91560155891204"
      },
      "geometry": {
        "type": "Point",
        "coordinates": [
          -6.768572523406042,
          20.834387807100036
        ]
      }
    },
    {
      "type": "Feature",
      "properties": {
        "norad_id": 34317,
        "name": "COSMOS 2251 DEB",
        "group": "cosmos-2251-debris",
        "lat": -71.42597083731407,
        "lon": -76.8407024791653,
        "alt_km": 1191.6401395889734,
        "timestamp": "2025-12-07T16:44:04.306798+00:00",
        "meta_object_name": "COSMOS 2251 DEB",
        "meta_object_id": "1993-036NP",
        "meta_epoch": "2025-12-06T13:38:39.713280",
        "meta_mean_motion": 13.65114173,
        "meta_eccentricity": 0.03363412,
        "meta_inclination": 73.925,
        "meta_ra_of_asc_node": 45.9169,
        "meta_arg_of_pericenter": 36.3808,
        "meta_mean_anomaly": 81.9119,
        "meta_ephemeris_type": 0,
        "meta_classification_type": "U",
        "meta_norad_cat_id": 34317,
        "meta_element_set_no": 999,
        "meta_rev_at_epoch": 83535,
        "meta_bstar": 0.00061437851,
        "meta_mean_motion_dot": 7.11e-06,
        "meta_mean_motion_ddot": 0,
        "tle_line1": "1 34317U 93036NP  25340.56851520  .00000711  00000+0  61438-3 0  9998",
        "tle_line2": "2 34317  73.9250  45.9169 0336341  36.3808  81.9119 13.65114173835353"
      },
      "geometry": {
        "type": "Point",
        "coordinates": [
          -76.8407024791653,
          -71.42597083731407
        ]
      }
    },
    {
      "type": "Feature",
      "properties": {
        "norad_id": 34321,
        "name": "COSMOS 2251 DEB",
        "group": "cosmos-2251-debris",
        "lat": -25.546088966000852,
        "lon": -6.2963098413372975,
        "alt_km": 730.6291000472293,
        "timestamp": "2025-12-07T16:44:04.306808+00:00",
        "meta_object_name": "COSMOS 2251 DEB",
        "meta_object_id": "1993-036NT",
        "meta_epoch": "2025-12-06T23:46:29.035776",
        "meta_mean_motion": 14.50018153,
        "meta_eccentricity": 0.00156892,
        "meta_inclination": 74.0279,
        "meta_ra_of_asc_node": 167.1628,
        "meta_arg_of_pericenter": 296.9889,
        "meta_mean_anomaly": 182.4283,
        "meta_ephemeris_type": 0,
        "meta_classification_type": "U",
        "meta_norad_cat_id": 34321,
        "meta_element_set_no": 999,
        "meta_rev_at_epoch": 88403,
        "meta_bstar": 0.0008989209,
        "meta_mean_motion_dot": 3.462e-05,
        "meta_mean_motion_ddot": 0,
        "tle_line1": "1 34321U 93036NT  25340.99061384  .00003462  00000+0  89892-3 0  9991",
        "tle_line2": "2 34321  74.0279 167.1628 0015689 296.9889 182.4283 14.50018153884034"
      },
      "geometry": {
        "type": "Point",
        "coordinates": [
          -6.2963098413372975,
          -25.546088966000852
        ]
      }
    },
    {
      "type": "Feature",
      "properties": {
        "norad_id": 34323,
        "name": "COSMOS 2251 DEB",
        "group": "cosmos-2251-debris",
        "lat": 36.365197239225694,
        "lon": -59.22729147265979,
        "alt_km": 610.7657827821995,
        "timestamp": "2025-12-07T16:44:04.306819+00:00",
        "meta_object_name": "COSMOS 2251 DEB",
        "meta_object_id": "1993-036NV",
        "meta_epoch": "2025-12-06T21:16:13.696032",
        "meta_mean_motion": 14.74119259,
        "meta_eccentricity": 0.00602832,
        "meta_inclination": 73.9533,
        "meta_ra_of_asc_node": 134.5983,
        "meta_arg_of_pericenter": 180.067,
        "meta_mean_anomaly": 340.0131,
        "meta_ephemeris_type": 0,
        "meta_classification_type": "U",
        "meta_norad_cat_id": 34323,
        "meta_element_set_no": 999,
        "meta_rev_at_epoch": 88353,
        "meta_bstar": 0.0046471724,
        "meta_mean_motion_dot": 0.00031651,
        "meta_mean_motion_ddot": 0,
        "tle_line1": "1 34323U 93036NV  25340.88626963  .00031651  00000+0  46472-2 0  9998",
        "tle_line2": "2 34323  73.9533 134.5983 0060283 180.0670 340.0131 14.74119259883533"
      },
      "geometry": {
        "type": "Point",
        "coordinates": [
          -59.22729147265979,
          36.365197239225694
        ]
      }
    },
    {
      "type": "Feature",
      "properties": {
        "norad_id": 34325,
        "name": "COSMOS 2251 DEB",
        "group": "cosmos-2251-debris",
        "lat": -2.373947415333391,
        "lon": 22.379192163631856,
        "alt_km": 769.6365100213443,
        "timestamp": "2025-12-07T16:44:04.306829+00:00",
        "meta_object_name": "COSMOS 2251 DEB",
        "meta_object_id": "1993-036NX",
        "meta_epoch": "2025-12-06T21:08:06.297216",
        "meta_mean_motion": 14.04421191,
        "meta_eccentricity": 0.0192827,
        "meta_inclination": 73.8712,
        "meta_ra_of_asc_node": 203.1301,
        "meta_arg_of_pericenter": 221.6418,
        "meta_mean_anomaly": 154.7486,
        "meta_ephemeris_type": 0,
        "meta_classification_type": "U",
        "meta_norad_cat_id": 34325,
        "meta_element_set_no": 999,
        "meta_rev_at_epoch": 85433,
        "meta_bstar": 0.0029908117,
        "meta_mean_motion_dot": 5.601e-05,
        "meta_mean_motion_ddot": 0,
        "tle_line1": "1 34325U 93036NX  25340.88062844  .00005601  00000+0  29908-2 0  9993",
        "tle_line2": "2 34325  73.8712 203.1301 0192827 221.6418 154.7486 14.04421191854335"
      },
      "geometry": {
        "type": "Point",
        "coordinates": [
          22.379192163631856,
          -2.373947415333391
        ]
      }
    },
    {
      "type": "Feature",
      "properties": {
        "norad_id": 34327,
        "name": "COSMOS 2251 DEB",
        "group": "cosmos-2251-debris",
        "lat": -72.81295350618919,
        "lon": 70.1273255006724,
        "alt_km": 610.0889285539797,
        "timestamp": "2025-12-07T16:44:04.306839+00:00",
        "meta_object_name": "COSMOS 2251 DEB",
        "meta_object_id": "1993-036NZ",
        "meta_epoch": "2025-12-06T15:38:43.894752",
        "meta_mean_motion": 14.88982196,
        "meta_eccentricity": 0.00324216,
        "meta_inclination": 73.9932,
        "meta_ra_of_asc_node": 184.078,
        "meta_arg_of_pericenter": 1.6856,
        "meta_mean_anomaly": 61.0726,
        "meta_ephemeris_type": 0,
        "meta_classification_type": "U",
        "meta_norad_cat_id": 34327,
        "meta_element_set_no": 999,
        "meta_rev_at_epoch": 89417,
        "meta_bstar": 0.0020557625,
        "meta_mean_motion_dot": 0.00019542,
        "meta_mean_motion_ddot": 0,
        "tle_line1": "1 34327U 93036NZ  25340.65189693  .00019542  00000+0  20558-2 0  9993",
        "tle_line2": "2 34327  73.9932 184.0780 0032421   1.6856  61.0726 14.88982196894177"
      },
      "geometry": {
        "type": "Point",
        "coordinates": [
          70.1273255006724,
          -72.81295350618919
        ]
      }
    }
  ]
}